BEIDOU 3 (C01)          
1 36287U 10001A   22088.59528100 -.00000301  00000+0  00000+0 0  9991
2 36287   1.9436  48.7542 0003402  14.5320 118.3674  1.00268723 44710
BEIDOU 5 (C06)          
1 36828U 10036A   22088.52860870 -.00000166  00000+0  00000+0 0  9995
2 36828  54.1907 176.9618 0027687 184.8357 123.9890  1.00269418 42772
BEIDOU 6 (C04)          
1 37210U 10057A   22087.24961241 -.00000133  00000+0  00000+0 0  9990
2 37210   1.0246  55.6366 0003361 144.2966 235.5557  1.00270866 41821
BEIDOU 7 (C07)          
1 37256U 10068A   22088.49476444 -.00000181  00000+0  00000+0 0  9999
2 37256  50.3533 290.6008 0018204 182.6113   0.4905  1.00275145 41341
BEIDOU 8 (C08)          
1 37384U 11013A   22088.26470501 -.00000174  00000+0  00000+0 0  9997
2 37384  60.1834  55.0641 0018330 193.7972 141.8866  1.00273857 40217
BEIDOU 9 (C09)          
1 37763U 11038A   22087.11910833 -.00000107  00000+0  00000+0 0  9991
2 37763  54.4752 179.4564 0091188 226.3226 274.0362  1.00252713 39187
BEIDOU 10 (C10)         
1 37948U 11073A   22087.58149714 -.00000129  00000+0  00000+0 0  9992
2 37948  50.4701 290.2435 0077061 217.7517 343.1556  1.00271213 37943
BEIDOU 11 (C05)         
1 38091U 12008A   22088.65789289  .00000037  00000+0  00000+0 0  9994
2 38091   1.3893  65.2398 0014930 322.6423  94.7113  1.00267830 37034
BEIDOU 12 (C11)         
1 38250U 12018A   22088.39725755 -.00000109  00000+0  00000+0 0  9992
2 38250  56.7143 356.2033 0021612 257.7567 278.6782  1.86234110 67592
BEIDOU 13 (C12)         
1 38251U 12018B   22088.03816935 -.00000108  00000+0  00000+0 0  9994
2 38251  56.6327 355.5459 0013215 265.0148  74.9299  1.86234300 67587
BEIDOU 15 (C14)         
1 38775U 12050B   22088.47031622  .00000050  00000+0  00000+0 0  9996
2 38775  55.3528 114.3763 0014846 318.0470 148.2205  1.86231343 64970
BEIDOU 16 (C02)         
1 38953U 12059A   22088.51233656 -.00000196  00000+0  00000+0 0  9991
2 38953   1.7917  84.5230 0013193 291.6684  79.2062  1.00270947 34463
BEIDOU 17 (C31)         
1 40549U 15019A   22088.58868894 -.00000149  00000+0  00000+0 0  9997
2 40549  52.0213 313.6816 0035492 188.6627 350.6473  1.00259577 25636
BEIDOU 18 (C57)         
1 40748U 15037A   22088.47364216 -.00000108  00000+0  00000+0 0  9990
2 40748  55.8876 354.4469 0005635   9.3044 172.1437  1.86233313 45428
BEIDOU 19 (C58)         
1 40749U 15037B   22088.18304605 -.00000108  00000+0  00000+0 0  9995
2 40749  55.8912 354.4464 0006643 334.2614 147.2136  1.86232253 45418
BEIDOU 20 (C18)         
1 40938U 15053A   22088.49146550 -.00000114  00000+0  00000+0 0  9997
2 40938  51.6246 276.7853 0044182 192.6393 349.8029  1.00264197 23909
BEIDOU IGSO-6 (C13)     
1 41434U 16021A   22087.63413041 -.00000131  00000+0  00000+0 0  9991
2 41434  57.9821  53.6655 0043400 220.1169 233.3796  1.00258426 22029
BEIDOU-2 G7 (C03)       
1 41586U 16037A   22088.56716212 -.00000374  00000+0  00000+0 0  9994
2 41586   1.8008  68.5332 0009198 359.5327  73.6024  1.00271311 21349
BEIDOU-3 M1 (C19)       
1 43001U 17069A   22088.23440142  .00000050  00000+0  00000+0 0  9994
2 43001  55.5061 114.3739 0011796 287.7621 176.5363  1.86231686 29909
BEIDOU-3 M2 (C20)       
1 43002U 17069B   22088.56021575  .00000051  00000+0  00000+0 0  9997
2 43002  55.5061 114.3986 0009663 305.4896  60.3852  1.86231457 29905
BEIDOU-3 M3 (C27)       
1 43107U 18003A   22088.61850907 -.00000110  00000+0  00000+0 0  9994
2 43107  55.3367 355.3944 0005419  41.5035 169.4870  1.86232496 28664
BEIDOU-3 M4 (C28)       
1 43108U 18003B   22088.36348038 -.00000110  00000+0  00000+0 0  9994
2 43108  55.3298 355.3921 0002901 278.3093 166.0349  1.86230923 28667
BEIDOU-3 M5 (C21)       
1 43207U 18018A   22088.14661754  .00000050  00000+0  00000+0 0  9991
2 43207  55.4651 114.4931 0007094 320.8637  39.1537  1.86231376 28045
BEIDOU-3 M6 (C22)       
1 43208U 18018B   22088.21324641  .00000050  00000+0  00000+0 0  9991
2 43208  55.4645 114.4961 0009919 296.7545  63.2121  1.86231673 28046
BEIDOU-3 M7 (C29)       
1 43245U 18029A   22088.24425139 -.00000107  00000+0  00000+0 0  9995
2 43245  55.2544 353.1807 0001449 355.1619 235.2740  1.86232570 27196
BEIDOU-3 M8 (C30)       
1 43246U 18029B   22088.27535465 -.00000107  00000+0  10000-3 0  9998
2 43246  55.2515 353.2099 0005405 357.4186 300.3378  1.86232776 27187
BEIDOU IGSO-7 (C16)     
1 43539U 18057A   22088.53465152 -.00000168  00000+0  00000+0 0  9990
2 43539  55.0731 176.4130 0046614 224.5592  89.6424  1.00282454 13709
BEIDOU-3 M9 (C23)       
1 43581U 18062A   22088.09841416 -.00000027  00000+0  00000+0 0  9999
2 43581  54.3022 234.8344 0001814 310.4357  79.4842  1.86231881 24934
BEIDOU-3 M10 (C24)      
1 43582U 18062B   22088.52128693 -.00000031  00000+0  00000+0 0  9998
2 43582  54.3026 234.8093 0005769  23.0528  22.0981  1.86232106 24940
BEIDOU-3 M11 (C25)      
1 43602U 18067A   22088.54703444 -.00000032  00000+0  00000+0 0  9992
2 43602  54.3828 233.4157 0007412  15.1050  88.8520  1.86231695 24433
BEIDOU-3 M12 (C26)      
1 43603U 18067B   22088.51438223 -.00000032  00000+0  00000+0 0  9990
2 43603  54.3801 233.3843 0004472   9.7603 342.6952  1.86231633 24445
BEIDOU-3 M13 (C32)      
1 43622U 18072A   22088.50184715  .00000050  00000+0  00000+0 0  9999
2 43622  55.4316 114.0393 0008513 283.3303  90.2354  1.86231582 23962
BEIDOU-3 M14 (C33)      
1 43623U 18072B   22088.35922275  .00000050  00000+0  00000+0 0  9994
2 43623  55.4332 114.0357 0006549 302.1562  66.0141  1.86231378 23963
BEIDOU-3 M15 (C34)      
1 43647U 18078A   22088.22833531 -.00000108  00000+0  10000-3 0  9998
2 43647  55.1485 353.3467 0007758   4.3580 171.5115  1.86232464 23464
BEIDOU-3 M16 (C35)      
1 43648U 18078B   22088.11095400 -.00000107  00000+0  00000+0 0  9996
2 43648  55.1451 353.3583 0005708   9.1022 356.0188  1.86232242 23480
BEIDOU-3 G1 (C59)       
1 43683U 18085A   22088.56771399 -.00000300  00000+0  00000+0 0  9995
2 43683   0.8408 180.2583 0002668 320.7141  30.3916  1.00269989 12608
BEIDOU-3 M17 (C36)      
1 43706U 18093A   22088.25511344 -.00000029  00000+0  00000+0 0  9996
2 43706  54.3839 234.7081 0007628 277.6474  82.2110  1.86231770 22844
BEIDOU-3 M18 (C37)      
1 43707U 18093B   22088.15688057 -.00000028  00000+0  00000+0 0  9991
2 43707  54.3847 234.7024 0006648 313.5775  71.5659  1.86232121 22835
BEIDOU-3 IGSO-1 (C38)   
1 44204U 19023A   22088.33312625 -.00000207  00000+0  00000+0 0  9992
2 44204  56.4454  53.8303 0020172 205.9984 165.9277  1.00281778 10917
BEIDOU-2 G8             
1 44231U 19027A   22088.56577113 -.00000270  00000+0  00000+0 0  9996
2 44231   0.6735  71.7236 0004367 134.4549 328.8492  1.00266992 10623
BEIDOU-3 IGSO-2 (C39)   
1 44337U 19035A   22088.61716093 -.00000167  00000+0  00000+0 0  9995
2 44337  55.1126 172.4349 0022908 192.9477 162.9218  1.00277551 10247
BEIDOU-3 M23 (C45)      
1 44542U 19061A   22088.19064505 -.00000028  00000+0  00000+0 0  9995
2 44542  54.6101 234.8366 0007687 349.5155  10.4138  1.86231137 17096
BEIDOU-3 M24 (C46)      
1 44543U 19061B   22088.41087108 -.00000030  00000+0  00000+0 0  9998
2 44543  54.6088 234.7987 0004929 349.5828  69.1989  1.86231682 17092
BEIDOU-3 IGSO-3         
1 44709U 19073A   22088.32834847 -.00000152  00000+0  00000+0 0  9990
2 44709  57.3938 297.2119 0020522 172.5853 314.5551  1.00280555  9003
BEIDOU-3 M21            
1 44793U 19078A   22087.76716295 -.00000107  00000+0  10000-3 0  9996
2 44793  54.9977 353.3950 0007568   6.1825 174.5232  1.86232209 15942
BEIDOU-3 M22            
1 44794U 19078B   22088.43191148 -.00000108  00000+0  00000+0 0  9992
2 44794  54.9713 353.3657 0005560   4.3623 173.5307  1.86232404 15951
BEIDOU-3 M19            
1 44864U 19090A   22088.54158519  .00000050  00000+0  00000+0 0  9996
2 44864  55.3664 114.2536 0018538 269.4221 176.5174  1.86231873 15545
BEIDOU-3 M20            
1 44865U 19090B   22088.36832297  .00000050  00000+0  00000+0 0  9999
2 44865  55.3687 114.2909 0016869 282.5039 137.1530  1.86231844 15517
BEIDOU-3 G2             
1 45344U 20017A   22088.51146437 -.00000164  00000+0  00000+0 0  9991
2 45344   2.1252 348.1723 0003155  81.4868  21.3585  1.00272526  7816
BEIDOU-3 G3             
1 45807U 20040A   22088.58926294 -.00000378  00000+0  00000+0 0  9992
2 45807   1.6256 301.2832 0007400 346.1021 222.2623  1.00271302  6633
